ORBCOMM FM114           
1 41179U 15081A   26062.57255876  .00000786  00000+0  20306-3 0  9992
2 41179  47.0042 141.2880 0001266  74.5268 285.5758 14.58718203542338
ORBCOMM FM119           
1 41180U 15081B   26062.91409484  .00001005  00000+0  24978-3 0  9992
2 41180  47.0008  49.0317 0000903 218.4558 141.6263 14.58662239543634
ORBCOMM FM105           
1 41181U 15081C   26062.24435444  .00000339  00000+0  13974-3 0  9997
2 41181  47.0008  82.5406 0001305   7.6324 352.4576 14.45487326538228
ORBCOMM FM110           
1 41182U 15081D   26062.56178373  .00001282  00000+0  30825-3 0  9990
2 41182  47.0014 140.8129 0003548 295.0481  65.0036 14.58720495542206
ORBCOMM FM118           
1 41183U 15081E   26062.59636074  .00001228  00000+0  29689-3 0  9997
2 41183  47.0033 140.9629 0003884 264.1090  95.9353 14.58716363542315
ORBCOMM FM112           
1 41184U 15081F   26062.94179248  .00001048  00000+0  25859-3 0  9997
2 41184  46.9996  47.8319 0001011  52.3996 307.6981 14.58718335543586
ORBCOMM FM113           
1 41185U 15081G   26062.37105889  .00000913  00000+0  22989-3 0  9996
2 41185  47.0012  50.8971 0000592  57.1173 302.9770 14.58717779543483
ORBCOMM FM115           
1 41186U 15081H   26062.66987875  .00001069  00000+0  24000-3 0  9991
2 41186  46.9973 244.9013 0001160 205.8214 154.2615 14.63105979545769
ORBCOMM FM108           
1 41187U 15081J   26062.67618107  .00001299  00000+0  31190-3 0  9995
2 41187  47.0059 320.9947 0002200  59.3085 300.8017 14.58730739544678
ORBCOMM FM117           
1 41188U 15081K   26062.91567544  .00001277  00000+0  30719-3 0  9993
2 41188  47.0022 318.5312 0002523  71.7427 288.3733 14.58723333544750
ORBCOMM FM116           
1 41189U 15081L   26062.14302163  .00000958  00000+0  23956-3 0  9993
2 41189  47.0028  51.9647 0002691 289.7792  70.2803 14.58710608543451
